STARLINK-34655          
1 65027U 25161N   26158.48922551  .00023996  00000+0  81981-3 0  9991
2 65027  53.1587 237.4416 0001360  61.0103 299.1034 15.30194736 49076
STARLINK-34807          
1 65028U 25161P   26158.53652664  .00021197  00000+0  63655-3 0  9992
2 65028  53.1608 236.3141 0001416  72.5750 287.5407 15.34408192 49096
STARLINK-34731          
1 65029U 25161Q   26158.51549264  .00032601  00000+0  97124-3 0  9992
2 65029  53.1584 236.1889 0000897  84.8281 275.2824 15.34418585 49098
STARLINK-34614          
1 65030U 25161R   26158.48500169  .00022315  00000+0  76328-3 0  9995
2 65030  53.1590 237.4166 0001645  68.9424 291.1753 15.30200458 49073
STARLINK-34677          
1 65031U 25161S   26158.48078419  .00024118  00000+0  82403-3 0  9998
2 65031  53.1591 237.3903 0001555  66.8242 293.2922 15.30190352 47977
STARLINK-34656          
1 65032U 25161T   26158.54399050  .00017416  00000+0  59844-3 0  9999
2 65032  53.1596 237.0709 0001125  90.7385 269.3745 15.30218107 49081
STARLINK-34610          
1 65034U 25161V   26158.72621993  .00018943  00000+0  65078-3 0  9997
2 65034  53.1586 236.0765 0001479 100.7781 259.3386 15.30164103 48015
STARLINK-34286          
1 65035U 25161W   26158.71721109  .00027746  00000+0  83005-3 0  9998
2 65035  53.1580 235.3143 0001491  68.0387 292.0774 15.34371103 48024
STARLINK-34770          
1 65036U 25161X   26158.54080690  .00014372  00000+0  49644-3 0  9995
2 65036  53.1597 237.0528 0001284  87.5861 272.5287 15.30198122 47982
STARLINK-34776          
1 65037U 25161Y   26158.53661672  .00016819  00000+0  57946-3 0  9992
2 65037  53.1593 237.0250 0001639  22.1350 337.9721 15.30157540 47981
STARLINK-34827          
1 65038U 25161Z   26158.53021101  .00021876  00000+0  65754-3 0  9995
2 65038  53.1591 236.2740 0000976  98.5390 261.5724 15.34359661 47997
STARLINK-34721          
1 65039U 25161AA  26158.49227544  .00030279  00000+0  10300-2 0  9993
2 65039  53.1585 236.7453 0001504  67.5225 292.5935 15.30207048 47982
STARLINK-34819          
1 65040U 25161AB  26158.49027802  .00031113  00000+0  10580-2 0  9998
2 65040  53.1585 237.4431 0001560  69.5155 290.6013 15.30207818 47974
STARLINK-34820          
1 65041U 25161AC  26158.51338123  .00021543  00000+0  64728-3 0  9993
2 65041  53.1591 236.1712 0001399 105.3532 254.7626 15.34380978 47994
STARLINK-34824          
1 65042U 25161AD  26158.53231817  .00026762  00000+0  80142-3 0  9994
2 65042  53.1596 236.2861 0001161  84.2122 275.9012 15.34358896 47991
HULIANWANG DIGUI-40     
1 65043U 25162A   26158.69352519 -.00000079  00000+0  97190-4 0  9992
2 65043  50.0007 299.9933 0000371 103.7969 256.2945 13.29324899 42089
HULIANWANG DIGUI-41     
1 65044U 25162B   26158.68517522 -.00000073  00000+0  11058-3 0  9991
2 65044  50.0017 299.9744 0000336  95.5927 264.4983 13.29324508 42095
HULIANWANG DIGUI-42     
1 65045U 25162C   26158.75195997 -.00000062  00000+0  13281-3 0  9996
2 65045  49.9982 299.5747 0000366 101.9173 258.1740 13.29325207 42101
HULIANWANG DIGUI-43     
1 65046U 25162D   26158.74360080 -.00000070  00000+0  11690-3 0  9994
2 65046  49.9999 299.5753 0000390 108.6677 251.4238 13.29323751 42107
HULIANWANG DIGUI-44     
1 65047U 25162E   26158.73491823 -.00000070  00000+0  11659-3 0  9999
2 65047  50.0026 299.5970 0001020 204.0609 156.0215 13.29316305 42113
HULIANWANG DIGUI-45     
1 65048U 25162F   26158.72692844 -.00000076  00000+0  10425-3 0  9991
2 65048  50.0056 299.6303 0000356  99.8439 260.2473 13.29324723 42106
HULIANWANG DIGUI-46     
1 65049U 25162G   26158.71858946 -.00000078  00000+0  99318-4 0  9999
2 65049  50.0075 299.6321 0000390  98.3941 261.6975 13.29324570 42100
HULIANWANG DIGUI-47     
1 65050U 25162H   26158.71023332 -.00000082  00000+0  90712-4 0  9998
2 65050  50.0039 299.5014 0000421 100.7015 259.3904 13.29324140 42104
HULIANWANG DIGUI-48     
1 65051U 25162J   26158.70189598 -.00000077  00000+0  10224-3 0  9998
2 65051  50.0049 299.4823 0000378 102.4981 257.5933 13.29325078 42108
NISAR                   
1 65053U 25163A   26158.80087154  .00000218  00000+0  78835-4 0  9996
2 65053  98.4054 346.6034 0001248  90.5772 269.5561 14.42503694 45036
PRSC-S1                 
1 65055U 25164A   26158.84950655  .00005954  00000+0  40870-3 0  9997
2 65055  41.1316 340.3990 0007606 289.1083  70.8907 15.06373063 47025
STARLINK-34788          
1 65056U 25165A   26158.69681140  .00004514  00000+0  31658-3 0  9997
2 65056  97.3911 235.2504 0001558 109.3048 250.8348 15.05655603 48333
STARLINK-34745          
1 65057U 25165B   26158.71619618  .00004141  00000+0  29078-3 0  9991
2 65057  97.3888 235.2225 0002560 119.7298 240.4185 15.05657411 48336
STARLINK-34779          
1 65058U 25165C   26158.76050501  .00008275  00000+0  57671-3 0  9999
2 65058  97.3881 235.3143 0001892 114.2667 245.8758 15.05658098 48345
STARLINK-34803          
1 65059U 25165D   26158.68850715  .00006477  00000+0  45243-3 0  9990
2 65059  97.3907 235.2644 0001705 148.2349 211.8982 15.05654256 48330
