OBJECT_NAME,OBJECT_ID,EPOCH,MEAN_MOTION,ECCENTRICITY,INCLINATION,RA_OF_ASC_NODE,ARG_OF_PERICENTER,MEAN_ANOMALY,EPHEMERIS_TYPE,CLASSIFICATION_TYPE,NORAD_CAT_ID,ELEMENT_SET_NO,REV_AT_EPOCH,BSTAR,MEAN_MOTION_DOT,MEAN_MOTION_DDOT
STARLINK-34655,2025-161N,2026-06-07T11:44:29.084064,15.30194736,.000136,53.1587,237.4416,61.0103,299.1034,0,U,65027,999,4907,.81981E-3,.23996E-3,0
STARLINK-34807,2025-161P,2026-06-07T12:52:35.901696,15.34408192,.0001416,53.1608,236.3141,72.5750,287.5407,0,U,65028,999,4909,.63655E-3,.21197E-3,0
STARLINK-34731,2025-161Q,2026-06-07T12:22:18.564096,15.34418585,.0000897,53.1584,236.1889,84.8281,275.2824,0,U,65029,999,4909,.97124E-3,.32601E-3,0
STARLINK-34614,2025-161R,2026-06-07T11:38:24.146016,15.30200458,.0001645,53.1590,237.4166,68.9424,291.1753,0,U,65030,999,4907,.76328E-3,.22315E-3,0
STARLINK-34677,2025-161S,2026-06-07T11:32:19.754016,15.30190352,.0001555,53.1591,237.3903,66.8242,293.2922,0,U,65031,999,4797,.82403E-3,.24118E-3,0
STARLINK-34656,2025-161T,2026-06-07T13:03:20.779200,15.30218107,.0001125,53.1596,237.0709,90.7385,269.3745,0,U,65032,999,4908,.59844E-3,.17416E-3,0
STARLINK-34610,2025-161V,2026-06-07T17:25:45.401952,15.30164103,.0001479,53.1586,236.0765,100.7781,259.3386,0,U,65034,999,4801,.65078E-3,.18943E-3,0
STARLINK-34286,2025-161W,2026-06-07T17:12:47.038176,15.34371103,.0001491,53.1580,235.3143,68.0387,292.0774,0,U,65035,999,4802,.83005E-3,.27746E-3,0
STARLINK-34770,2025-161X,2026-06-07T12:58:45.716160,15.30198122,.0001284,53.1597,237.0528,87.5861,272.5287,0,U,65036,999,4798,.49644E-3,.14372E-3,0
STARLINK-34776,2025-161Y,2026-06-07T12:52:43.684608,15.30157540,.0001639,53.1593,237.0250,22.1350,337.9721,0,U,65037,999,4798,.57946E-3,.16819E-3,0
STARLINK-34827,2025-161Z,2026-06-07T12:43:30.231264,15.34359661,.0000976,53.1591,236.2740,98.5390,261.5724,0,U,65038,999,4799,.65754E-3,.21876E-3,0
STARLINK-34721,2025-161AA,2026-06-07T11:48:52.598016,15.30207048,.0001504,53.1585,236.7453,67.5225,292.5935,0,U,65039,999,4798,.103E-2,.30279E-3,0
STARLINK-34819,2025-161AB,2026-06-07T11:46:00.020928,15.30207818,.000156,53.1585,237.4431,69.5155,290.6013,0,U,65040,999,4797,.1058E-2,.31113E-3,0
STARLINK-34820,2025-161AC,2026-06-07T12:19:16.138272,15.34380978,.0001399,53.1591,236.1712,105.3532,254.7626,0,U,65041,999,4799,.64728E-3,.21543E-3,0
STARLINK-34824,2025-161AD,2026-06-07T12:46:32.289888,15.34358896,.0001161,53.1596,236.2861,84.2122,275.9012,0,U,65042,999,4799,.80142E-3,.26762E-3,0
HULIANWANG DIGUI-40,2025-162A,2026-06-07T16:38:40.576416,13.29324899,.0000371,50.0007,299.9933,103.7969,256.2945,0,U,65043,999,4208,.9719E-4,-.79E-6,0
HULIANWANG DIGUI-41,2025-162B,2026-06-07T16:26:39.139008,13.29324508,.0000336,50.0017,299.9744,95.5927,264.4983,0,U,65044,999,4209,.11058E-3,-.73E-6,0
HULIANWANG DIGUI-42,2025-162C,2026-06-07T18:02:49.341408,13.29325207,.0000366,49.9982,299.5747,101.9173,258.1740,0,U,65045,999,4210,.13281E-3,-.62E-6,0
HULIANWANG DIGUI-43,2025-162D,2026-06-07T17:50:47.109120,13.29323751,.000039,49.9999,299.5753,108.6677,251.4238,0,U,65046,999,4210,.1169E-3,-.7E-6,0
HULIANWANG DIGUI-44,2025-162E,2026-06-07T17:38:16.935072,13.29316305,.000102,50.0026,299.5970,204.0609,156.0215,0,U,65047,999,4211,.11659E-3,-.7E-6,0
HULIANWANG DIGUI-45,2025-162F,2026-06-07T17:26:46.617216,13.29324723,.0000356,50.0056,299.6303,99.8439,260.2473,0,U,65048,999,4210,.10425E-3,-.76E-6,0
HULIANWANG DIGUI-46,2025-162G,2026-06-07T17:14:46.129344,13.29324570,.000039,50.0075,299.6321,98.3941,261.6975,0,U,65049,999,4210,.99318E-4,-.78E-6,0
HULIANWANG DIGUI-47,2025-162H,2026-06-07T17:02:44.158848,13.29324140,.0000421,50.0039,299.5014,100.7015,259.3904,0,U,65050,999,4210,.90712E-4,-.82E-6,0
HULIANWANG DIGUI-48,2025-162J,2026-06-07T16:50:43.812672,13.29325078,.0000378,50.0049,299.4823,102.4981,257.5933,0,U,65051,999,4210,.10224E-3,-.77E-6,0
NISAR,2025-163A,2026-06-07T19:13:15.301056,14.42503694,.0001248,98.4054,346.6034,90.5772,269.5561,0,U,65053,999,4503,.78835E-4,.218E-5,0
PRSC-S1,2025-164A,2026-06-07T20:23:17.365920,15.06373063,.0007606,41.1316,340.3990,289.1083,70.8907,0,U,65055,999,4702,.4087E-3,.5954E-4,0
STARLINK-34788,2025-165A,2026-06-07T16:43:24.504960,15.05655603,.0001558,97.3911,235.2504,109.3048,250.8348,0,U,65056,999,4833,.31658E-3,.4514E-4,0
STARLINK-34745,2025-165B,2026-06-07T17:11:19.349952,15.05657411,.000256,97.3888,235.2225,119.7298,240.4185,0,U,65057,999,4833,.29078E-3,.4141E-4,0
STARLINK-34779,2025-165C,2026-06-07T18:15:07.632864,15.05658098,.0001892,97.3881,235.3143,114.2667,245.8758,0,U,65058,999,4834,.57671E-3,.8275E-4,0
STARLINK-34803,2025-165D,2026-06-07T16:31:27.017760,15.05654256,.0001705,97.3907,235.2644,148.2349,211.8982,0,U,65059,999,4833,.45243E-3,.6477E-4,0
